{"type": "FeatureCollection", "features": [ {"type": "Feature", "properties": {"norad_id": 33867, "name": "IRIDIUM 33 DEB", "group": "iridium-33-debris", "lat": -84.24509850193229, "lon": -150.65017619261266, "alt_km": 383.21929499641647, "timestamp": "2025-12-12T11:38:31.797127+00:00", "meta": {"OBJECT_NAME": "IRIDIUM 33 DEB", "OBJECT_ID": "1997-051AL", "EPOCH": "2025-12-11T23:46:57.533088", "MEAN_MOTION": 15.66357552, "ECCENTRICITY": 0.0013372, "INCLINATION": 86.3648, "RA_OF_ASC_NODE": 350.4931, "ARG_OF_PERICENTER": 89.3333, "MEAN_ANOMALY": 270.9467, "EPHEMERIS_TYPE": 0, "CLASSIFICATION_TYPE": "U", "NORAD_CAT_ID": 33867, "ELEMENT_SET_NO": 999, "REV_AT_EPOCH": 89499, "BSTAR": 0.0085222, "MEAN_MOTION_DOT": 0.00974295, "MEAN_MOTION_DDOT": 0}, "tle": {"line1": "1 33867U 97051AL  25345.99094367  .00974295  00000+0  85222-2 0  9991", "line2": "2 33867  86.3648 350.4931 0013372  89.3333 270.9467 15.66357552894993"}}, "geometry": {"type": "Point", "coordinates": [-150.65017619261266, -84.24509850193229]}}, {"type": "Feature", "properties": {"norad_id": 33870, "name": "IRIDIUM 33 DEB", "group": "iridium-33-debris", "lat": 80.63679830719208, "lon": 80.98426216555134, "alt_km": 733.8225245826443, "timestamp": "2025-12-12T11:38:31.797138+00:00", "meta": {"OBJECT_NAME": "IRIDIUM 33 DEB", "OBJECT_ID": "1997-051AP", "EPOCH": "2025-12-11T05:37:02.620704", "MEAN_MOTION": 14.45838487, "ECCENTRICITY": 0.00213236, "INCLINATION": 86.3744, "RA_OF_ASC_NODE": 58.9059, "ARG_OF_PERICENTER": 182.8727, "MEAN_ANOMALY": 231.2371, "EPHEMERIS_TYPE": 0, "CLASSIFICATION_TYPE": "U", "NORAD_CAT_ID": 33870, "ELEMENT_SET_NO": 999, "REV_AT_EPOCH": 88115, "BSTAR": 0.0012319282, "MEAN_MOTION_DOT": 4.403e-05, "MEAN_MOTION_DDOT": 0}, "tle": {"line1": "1 33870U 97051AP  25345.23405811  .00004403  00000+0  12319-2 0  9994", "line2": "2 33870  86.3744  58.9059 0021323 182.8727 231.2371 14.45838487881151"}}, "geometry": {"type": "Point", "coordinates": [80.98426216555134, 80.63679830719208]}}, {"type": "Feature", "properties": {"norad_id": 33881, "name": "IRIDIUM 33 DEB", "group": "iridium-33-debris", "lat": -59.238516211918615, "lon": 100.7576457386467, "alt_km": 736.3851963761335, "timestamp": "2025-12-12T11:38:31.797149+00:00", "meta": {"OBJECT_NAME": "IRIDIUM 33 DEB", "OBJECT_ID": "1997-051BA", "EPOCH": "2025-12-12T03:55:05.956896", "MEAN_MOTION": 14.56558764, "ECCENTRICITY": 0.0061465, "INCLINATION": 86.386, "RA_OF_ASC_NODE": 106.9929, "ARG_OF_PERICENTER": 176.5725, "MEAN_ANOMALY": 237.0343, "EPHEMERIS_TYPE": 0, "CLASSIFICATION_TYPE": "U", "NORAD_CAT_ID": 33881, "ELEMENT_SET_NO": 999, "REV_AT_EPOCH": 87492, "BSTAR": 0.0031107, "MEAN_MOTION_DOT": 0.00014247, "MEAN_MOTION_DDOT": 0}, "tle": {"line1": "1 33881U 97051BA  25346.16326339  .00014247  00000+0  31107-2 0  9999", "line2": "2 33881  86.3860 106.9929 0061465 176.5725 237.0343 14.56558764874920"}}, "geometry": {"type": "Point", "coordinates": [100.7576457386467, -59.238516211918615]}}, {"type": "Feature", "properties": {"norad_id": 33884, "name": "IRIDIUM 33 DEB", "group": "iridium-33-debris", "lat": -47.48823814686553, "lon": -166.0959605666631, "alt_km": 645.2762740308754, "timestamp": "2025-12-12T11:38:31.797160+00:00", "meta": {"OBJECT_NAME": "IRIDIUM 33 DEB", "OBJECT_ID": "1997-051BD", "EPOCH": "2025-12-12T01:07:10.833024", "MEAN_MOTION": 14.77408265, "ECCENTRICITY": 0.0009744, "INCLINATION": 86.3699, "RA_OF_ASC_NODE": 10.1308, "ARG_OF_PERICENTER": 326.4674, "MEAN_ANOMALY": 90.7894, "EPHEMERIS_TYPE": 0, "CLASSIFICATION_TYPE": "U", "NORAD_CAT_ID": 33884, "ELEMENT_SET_NO": 999, "REV_AT_EPOCH": 88837, "BSTAR": 0.0020847, "MEAN_MOTION_DOT": 0.00014881, "MEAN_MOTION_DDOT": 0}, "tle": {"line1": "1 33884U 97051BD  25346.04665316  .00014881  00000+0  20847-2 0  9993", "line2": "2 33884  86.3699  10.1308 0009744 326.4674  90.7894 14.77408265888373"}}, "geometry": {"type": "Point", "coordinates": [-166.0959605666631, -47.48823814686553]}}, {"type": "Feature", "properties": {"norad_id": 33886, "name": "IRIDIUM 33 DEB", "group": "iridium-33-debris", "lat": -11.234893347532322, "lon": -111.94402003893713, "alt_km": 770.5571204717562, "timestamp": "2025-12-12T11:38:31.797171+00:00", "meta": {"OBJECT_NAME": "IRIDIUM 33 DEB", "OBJECT_ID": "1997-051BF", "EPOCH": "2025-12-12T04:21:45.779040", "MEAN_MOTION": 14.36051056, "ECCENTRICITY": 0.0012273, "INCLINATION": 86.383, "RA_OF_ASC_NODE": 67.4637, "ARG_OF_PERICENTER": 244.1213, "MEAN_ANOMALY": 180.0704, "EPHEMERIS_TYPE": 0, "CLASSIFICATION_TYPE": "U", "NORAD_CAT_ID": 33886, "ELEMENT_SET_NO": 999, "REV_AT_EPOCH": 88044, "BSTAR": 0.00030818, "MEAN_MOTION_DOT": 9.16e-06, "MEAN_MOTION_DDOT": 0}, "tle": {"line1": "1 33886U 97051BF  25346.18177985  .00000916  00000+0  30818-3 0  9994", "line2": "2 33886  86.3830  67.4637 0012273 244.1213 180.0704 14.36051056880448"}}, "geometry": {"type": "Point", "coordinates": [-111.94402003893713, -11.234893347532322]}}, {"type": "Feature", "properties": {"norad_id": 33887, "name": "IRIDIUM 33 DEB", "group": "iridium-33-debris", "lat": 53.38930064101946, "lon": 178.51164131105202, "alt_km": 763.4068568911498, "timestamp": "2025-12-12T11:38:31.797182+00:00", "meta": {"OBJECT_NAME": "IRIDIUM 33 DEB", "OBJECT_ID": "1997-051BG", "EPOCH": "2025-12-12T01:18:10.642176", "MEAN_MOTION": 14.37220058, "ECCENTRICITY": 0.0004387, "INCLINATION": 86.3045, "RA_OF_ASC_NODE": 3.6877, "ARG_OF_PERICENTER": 229.6742, "MEAN_ANOMALY": 189.2121, "EPHEMERIS_TYPE": 0, "CLASSIFICATION_TYPE": "U", "NORAD_CAT_ID": 33887, "ELEMENT_SET_NO": 999, "REV_AT_EPOCH": 88155, "BSTAR": 0.00021882, "MEAN_MOTION_DOT": 6.71e-06, "MEAN_MOTION_DDOT": 0}, "tle": {"line1": "1 33887U 97051BG  25346.05428984  .00000671  00000+0  21882-3 0  9998", "line2": "2 33887  86.3045   3.6877 0004387 229.6742 189.2121 14.37220058881555"}}, "geometry": {"type": "Point", "coordinates": [178.51164131105202, 53.38930064101946]}}, {"type": "Feature", "properties": {"norad_id": 33953, "name": "IRIDIUM 33 DEB", "group": "iridium-33-debris", "lat": -34.79700048947916, "lon": 51.37110332023802, "alt_km": 724.3938741718493, "timestamp": "2025-12-12T11:38:31.797193+00:00", "meta": {"OBJECT_NAME": "IRIDIUM 33 DEB", "OBJECT_ID": "1997-051BN", "EPOCH": "2025-12-12T03:40:56.127360", "MEAN_MOTION": 14.55317216, "ECCENTRICITY": 0.0018414, "INCLINATION": 86.3842, "RA_OF_ASC_NODE": 54.0336, "ARG_OF_PERICENTER": 104.659, "MEAN_ANOMALY": 284.1975, "EPHEMERIS_TYPE": 0, "CLASSIFICATION_TYPE": "U", "NORAD_CAT_ID": 33953, "ELEMENT_SET_NO": 999, "REV_AT_EPOCH": 88295, "BSTAR": 0.0018822, "MEAN_MOTION_DOT": 8.2e-05, "MEAN_MOTION_DDOT": 0}, "tle": {"line1": "1 33953U 97051BN  25346.15342740  .00008200  00000+0  18822-2 0  9993", "line2": "2 33953  86.3842  54.0336 0018414 104.6590 284.1975 14.55317216882953"}}, "geometry": {"type": "Point", "coordinates": [51.37110332023802, -34.79700048947916]}}, {"type": "Feature", "properties": {"norad_id": 33960, "name": "IRIDIUM 33 DEB", "group": "iridium-33-debris", "lat": 77.1190963072801, "lon": 92.98118641877421, "alt_km": 601.9321821149879, "timestamp": "2025-12-12T11:38:31.797218+00:00", "meta": {"OBJECT_NAME": "IRIDIUM 33 DEB", "OBJECT_ID": "1997-051BV", "EPOCH": "2025-12-11T20:52:13.312128", "MEAN_MOTION": 14.85121731, "ECCENTRICITY": 0.0007473, "INCLINATION": 86.253, "RA_OF_ASC_NODE": 289.9247, "ARG_OF_PERICENTER": 63.6989, "MEAN_ANOMALY": 349.9861, "EPHEMERIS_TYPE": 0, "CLASSIFICATION_TYPE": "U", "NORAD_CAT_ID": 33960, "ELEMENT_SET_NO": 999, "REV_AT_EPOCH": 88854, "BSTAR": 0.0046476, "MEAN_MOTION_DOT": 0.00039972, "MEAN_MOTION_DDOT": 0}, "tle": {"line1": "1 33960U 97051BV  25345.86959852  .00039972  00000+0  46476-2 0  9992", "line2": "2 33960  86.2530 289.9247 0007473  63.6989 349.9861 14.85121731888546"}}, "geometry": {"type": "Point", "coordinates": [92.98118641877421, 77.1190963072801]}}, {"type": "Feature", "properties": {"norad_id": 33966, "name": "IRIDIUM 33 DEB", "group": "iridium-33-debris", "lat": 82.4999624966339, "lon": -162.49801067811634, "alt_km": 719.8150640204385, "timestamp": "2025-12-12T11:38:31.797233+00:00", "meta": {"OBJECT_NAME": "IRIDIUM 33 DEB", "OBJECT_ID": "1997-051CB", "EPOCH": "2025-12-12T03:02:34.566144", "MEAN_MOTION": 14.49590623, "ECCENTRICITY": 0.0007335, "INCLINATION": 86.3923, "RA_OF_ASC_NODE": 46.2902, "ARG_OF_PERICENTER": 190.2619, "MEAN_ANOMALY": 197.7805, "EPHEMERIS_TYPE": 0, "CLASSIFICATION_TYPE": "U", "NORAD_CAT_ID": 33966, "ELEMENT_SET_NO": 999, "REV_AT_EPOCH": 88433, "BSTAR": 0.00086848, "MEAN_MOTION_DOT": 3.353e-05, "MEAN_MOTION_DDOT": 0}, "tle": {"line1": "1 33966U 97051CB  25346.12678896  .00003353  00000+0  86848-3 0  9996", "line2": "2 33966  86.3923  46.2902 0007335 190.2619 197.7805 14.49590623884335"}}, "geometry": {"type": "Point", "coordinates": [-162.49801067811634, 82.4999624966339]}}, {"type": "Feature", "properties": {"norad_id": 34071, "name": "IRIDIUM 33 DEB", "group": "iridium-33-debris", "lat": 16.609726301150538, "lon": -163.15326350968058, "alt_km": 724.0382687955453, "timestamp": "2025-12-12T11:38:31.797244+00:00", "meta": {"OBJECT_NAME": "IRIDIUM 33 DEB", "OBJECT_ID": "1997-051CE", "EPOCH": "2025-12-12T02:36:29.156256", "MEAN_MOTION": 14.49460742, "ECCENTRICITY": 0.0009929, "INCLINATION": 86.346, "RA_OF_ASC_NODE": 18.1025, "ARG_OF_PERICENTER": 109.4154, "MEAN_ANOMALY": 250.8124, "EPHEMERIS_TYPE": 0, "CLASSIFICATION_TYPE": "U", "NORAD_CAT_ID": 34071, "ELEMENT_SET_NO": 999, "REV_AT_EPOCH": 88325, "BSTAR": 0.00096011, "MEAN_MOTION_DOT": 3.696e-05, "MEAN_MOTION_DDOT": 0}, "tle": {"line1": "1 34071U 97051CE  25346.10867079  .00003696  00000+0  96011-3 0  9998", "line2": "2 34071  86.3460  18.1025 0009929 109.4154 250.8124 14.49460742883253"}}, "geometry": {"type": "Point", "coordinates": [-163.15326350968058, 16.609726301150538]}}]}